SATGUS                  
1 62713U 25009DJ  26068.70670884  .00009370  00000+0  76063-3 0  9990
2 62713  97.7097 150.9679 0005670  96.3538 263.8332 14.99840473 62643
STARLINK-33961          
1 64047U 25102AB  26068.50325301 -.00023035  00000+0 -19275-2 0  9992
2 64047  70.0017 114.9515 0002797 251.6237 108.4618 14.98362597 45804
